ONEWEB-0108             
1 48076U 21025AL  23059.40346473 -.00000164  00000+0 -48309-3 0  9994
2 48076  87.9072 199.6491 0001572  93.3574 266.7735 13.13468010 95495
ONEWEB-0108             
1 48076U 21025AL  23059.93670954 -.00000122  00000+0 -36787-3 0  9997
2 48076  87.9073 199.5436 0001556  92.6827 267.4480 13.13467820 95571
ONEWEB-0108             
1 48076U 21025AL  23060.85084342  .00000013  00000+0  15543-5 0  9996
2 48076  87.9075 199.3630 0001582  92.8930 267.2380 13.13467680 95686
ONEWEB-0108             
1 48076U 21025AL  23061.07937584  .00000191  00000+0  48864-3 0  9993
2 48076  87.9075 199.3179 0001578  92.7969 267.3340 13.13468579 95720
ONEWEB-0108             
1 48076U 21025AL  23061.76497676  .00000219  00000+0  56551-3 0  9995
2 48076  87.9076 199.1823 0001577  92.3219 267.8091 13.13468000 95804
ONEWEB-0108             
1 48076U 21025AL  23062.37439820  .00000368  00000+0  97226-3 0  9999
2 48076  87.9077 199.0620 0001569  92.5464 267.5845 13.13468957 95887
ONEWEB-0108             
1 48076U 21025AL  23062.37439820  .00000368  00000+0  97226-3 0  9999
2 48076  87.9077 199.0620 0001569  92.5464 267.5845 13.13468957 95898
ONEWEB-0108             
1 48076U 21025AL  23062.83146567  .00000297  00000+0  77762-3 0  9997
2 48076  87.9078 198.9717 0001543  92.1256 268.0049 13.13468140 95943
